{
    "links": {
        "self": "http://www.neowsapp.com/rest/v1/neo/3303224?api_key=iIulBulltgU6a56xZRHN4H3l9WmuAYTsLGpBGhQ2"
    },
    "id": "3303224",
    "neo_reference_id": "3303224",
    "name": "(2005 WY1)",
    "designation": "2005 WY1",
    "nasa_jpl_url": "http://ssd.jpl.nasa.gov/sbdb.cgi?sstr=3303224",
    "absolute_magnitude_h": 23.0,
    "estimated_diameter": {
        "kilometers": {
            "estimated_diameter_min": 0.0667659413,
            "estimated_diameter_max": 0.1492931834
        },
        "meters": {
            "estimated_diameter_min": 66.7659413495,
            "estimated_diameter_max": 149.2931834393
        },
        "miles": {
            "estimated_diameter_min": 0.0414864197,
            "estimated_diameter_max": 0.0927664547
        },
        "feet": {
            "estimated_diameter_min": 219.0483710172,
            "estimated_diameter_max": 489.807047955
        }
    },
    "is_potentially_hazardous_asteroid": false,
    "close_approach_data": [
        {
            "close_approach_date": "2005-11-24",
            "close_approach_date_full": "2005-Nov-24 12:30",
            "epoch_date_close_approach": 1132835400000,
            "relative_velocity": {
                "kilometers_per_second": "11.072663456",
                "kilometers_per_hour": "39861.5884417195",
                "miles_per_hour": "24768.4408848007"
            },
            "miss_distance": {
                "astronomical": "0.0589047888",
                "lunar": "22.9139628432",
                "kilometers": "8812030.937279856",
                "miles": "5475542.1201637728"
            },
            "orbiting_body": "Earth"
        }
    ],
    "orbital_data": {
        "orbit_id": "7",
        "orbit_determination_date": "2017-04-06 09:09:49",
        "first_observation_date": "2005-11-22",
        "last_observation_date": "2005-11-24",
        "data_arc_in_days": 2,
        "observations_used": 38,
        "orbit_uncertainty": "8",
        "minimum_orbit_intersection": ".0382441",
        "jupiter_tisserand_invariant": "3.299",
        "epoch_osculation": "2453697.5",
        "eccentricity": ".5795356790865028",
        "semi_major_axis": "2.320751893410227",
        "inclination": "13.91602483840055",
        "ascending_node_longitude": "51.32943277029191",
        "orbital_period": "1291.342656122389",
        "perihelion_distance": ".975793368871444",
        "perihelion_argument": "33.23267575714303",
        "aphelion_distance": "3.665710417949011",
        "perihelion_time": "2453718.421590125568",
        "mean_anomaly": "354.1674872974299",
        "mean_motion": ".2787796084123782",
        "equinox": "J2000",
        "orbit_class": {
            "orbit_class_type": "APO",
            "orbit_class_description": "Near-Earth asteroid orbits which cross the Earth’s orbit similar to that of 1862 Apollo",
            "orbit_class_range": "a (semi-major axis) > 1.0 AU; q (perihelion) < 1.017 AU"
        }
    },
    "is_sentry_object": false
}